[{"OBJECT_NAME":"PROBA-V","OBJECT_ID":"2013-021A","EPOCH":"2026-03-09T22:43:07.567104","MEAN_MOTION":14.2357369,"ECCENTRICITY":0.00052918,"INCLINATION":98.3507,"RA_OF_ASC_NODE":52.496,"ARG_OF_PERICENTER":69.2213,"MEAN_ANOMALY":290.9533,"EPHEMERIS_TYPE":0,"CLASSIFICATION_TYPE":"U","NORAD_CAT_ID":39159,"ELEMENT_SET_NO":999,"REV_AT_EPOCH":66699,"BSTAR":6.8440241e-5,"MEAN_MOTION_DOT":1.15e-6,"MEAN_MOTION_DDOT":0},{"OBJECT_NAME":"FENGYUN 1C DEB","OBJECT_ID":"1999-025EBS","EPOCH":"2026-03-07T15:34:13.023840","MEAN_MOTION":14.15312754,"ECCENTRICITY":0.00832641,"INCLINATION":99.1358,"RA_OF_ASC_NODE":139.7181,"ARG_OF_PERICENTER":4.3133,"MEAN_ANOMALY":355.8739,"EPHEMERIS_TYPE":0,"CLASSIFICATION_TYPE":"U","NORAD_CAT_ID":36986,"ELEMENT_SET_NO":999,"REV_AT_EPOCH":82945,"BSTAR":0.0017678328,"MEAN_MOTION_DOT":3.514e-5,"MEAN_MOTION_DDOT":0}]
